25593,COSMOS 2364 [GLONASS],1998,675.73,-1.0,-,64.02,Inactive,0,MEO,Kazakhstan,Russia/USSR,Unknown,Unknown,Unknown,1 25593U 98077A   25061.33878536  .00000025  00000+0  00000+0 0  9997,2 25593  64.0237  76.7532 0029250  50.4992  46.0289  2.13102791203601,2.13102791,0.002925,MEO
25594,COSMOS 2363 [GLONASS],1998,675.73,-1.0,-,64.02,Inactive,0,MEO,Kazakhstan,Russia/USSR,Unknown,Unknown,Unknown,1 25594U 98077B   25061.59371138  .00000023  00000+0  00000+0 0  9990,2 25594  64.0192  76.6743 0026792  43.0841 316.2708  2.13103528203623,2.13103528,0.0026792,MEO
25595,COSMOS 2362 [GLONASS],1998,675.73,-1.0,-,64.03,Inactive,0,MEO,Kazakhstan,Russia/USSR,Unknown,Unknown,Unknown,1 25595U 98077C   25060.36433550  .00000034  00000+0  00000+0 0  9994,2 25595  64.0285  76.8458 0004876  46.6684 139.2207  2.13103507203607,2.13103507,0.0004876,MEO
26564,COSMOS 2375 [GLONASS],2000,675.73,-1.0,-,65.46,Inactive,0,MEO,Kazakhstan,Russia/USSR,Unknown,Unknown,Unknown,1 26564U 00063A   25061.21930170 -.00000049  00000+0  00000+0 0  9991,2 26564  65.4600 329.8792 0007461  15.6024 344.4702  2.13101686189721,2.13101686,0.0007461,MEO
26565,COSMOS 2376 [GLONASS],2000,675.73,-1.0,-,65.47,Inactive,0,MEO,Kazakhstan,Russia/USSR,Unknown,Unknown,Unknown,1 26565U 00063B   25060.35102417 -.00000044  00000+0  00000+0 0  9996,2 26565  65.4650 329.9392 0005001  21.1601  94.7404  2.13102369189740,2.13102369,0.0005001,MEO
23512,COSMOS 2308 [GLONASS],1995,675.74,-1.0,-,64.31,Inactive,0,MEO,Kazakhstan,Russia/USSR,Unknown,Unknown,Unknown,1 23512U 95009B   25060.43170765 -.00000028  00000+0  00000+0 0  9991,2 23512  64.3130 317.8590 0006555 321.0213 209.3165  2.13099730233130,2.1309973,0.0006555,MEO
23620,COSMOS 2316 [GLONASS],1995,675.73,-1.0,-,65.47,Inactive,0,MEO,Kazakhstan,Russia/USSR,Unknown,Unknown,Unknown,1 23620U 95037A   25059.29697609  .00000055  00000+0  00000+0 0  9994,2 23620  65.4737 218.1502 0013484 149.2155 212.8689  2.13101313230346,2.13101313,0.0013484,MEO
23621,COSMOS 2317 [GLONASS],1995,675.73,-1.0,-,65.48,Inactive,0,MEO,Kazakhstan,Russia/USSR,Unknown,Unknown,Unknown,1 23621U 95037B   25059.47738539  .00000055  00000+0  00000+0 0  9993,2 23621  65.4837 218.2846 0009564 163.2438 202.1556  2.13101543230164,2.13101543,0.0009564,MEO
23622,COSMOS 2318 [GLONASS],1995,675.73,-1.0,-,65.48,Inactive,0,MEO,Kazakhstan,Russia/USSR,Unknown,Unknown,Unknown,1 23622U 95037C   25060.53672185  .00000057  00000+0  00000+0 0  9999,2 23622  65.4754 218.1365 0016928  74.4562 338.1307  2.13101675230161,2.13101675,0.0016928,MEO
23736,COSMOS 2323 [GLONASS],1995,675.73,-1.0,-,65.47,Inactive,0,MEO,Kazakhstan,Russia/USSR,Unknown,Unknown,Unknown,1 23736U 95068C   25058.98437074  .00000055  00000+0  00000+0 0  9999,2 23736  65.4665 217.9776 0008746 182.7460 227.4696  2.13103406227105,2.13103406,0.0008746,MEO
